start=new Date('2022-08-26T00:00:00.000Z').valueOf();
sats=[{"CLASSIFICATION_TYPE":"U","MEAN_ANOMALY":"8.9608","OBJECT_ID":"2022-017M","EPHEMERIS_TYPE":"0","MEAN_MOTION_DOT":"0.00016088","BSTAR":"0.00102680000000","RCS_SIZE":"LARGE","MEAN_MOTION_DDOT":"0.0000000000000","APOAPSIS":"540.863","ECCENTRICITY":"0.00015830","DECAY_DATE":null,"SITE":"AFWTR","PERIAPSIS":"538.672","LAUNCH_DATE":"2022-02-25","NORAD_CAT_ID":"51779","PERIOD":"95.438","MEAN_ELEMENT_THEORY":"SGP4","OBJECT_NAME":"STARLINK-3611","CENTER_NAME":"EARTH","TIME_SYSTEM":"UTC","OBJECT_TYPE":"PAYLOAD","COUNTRY_CODE":"US","ELEMENT_SET_NO":"999","SEMIMAJOR_AXIS":"6917.902","MEAN_MOTION":"15.08832796","ARG_OF_PERICENTER":"47.4144","EPOCH":"2022-08-25T22:00:00.999936","GP_ID":"211008079","FILE":"3547674","INCLINATION":"53.2188","RA_OF_ASC_NODE":"18.1092","TLE_LINE1":"1 51779U 22017M   22237.91667824  .00016088  00000-0  10268-2 0  9992","REF_FRAME":"TEME","TLE_LINE2":"2 51779  53.2188  18.1092 0001583  47.4144   8.9608 15.08832796  1304","REV_AT_EPOCH":"130"},{"ECCENTRICITY":"0.00013900","APOAPSIS":"540.735","DECAY_DATE":null,"LAUNCH_DATE":"2022-02-25","PERIAPSIS":"538.812","SITE":"AFWTR","PERIOD":"95.438","NORAD_CAT_ID":"51780","OBJECT_NAME":"STARLINK-3617","MEAN_ELEMENT_THEORY":"SGP4","CLASSIFICATION_TYPE":"U","MEAN_ANOMALY":"37.1143","OBJECT_ID":"2022-017N","BSTAR":"0.00115390000000","MEAN_MOTION_DOT":"0.00018119","EPHEMERIS_TYPE":"0","MEAN_MOTION_DDOT":"0.0000000000000","RCS_SIZE":"LARGE","GP_ID":"211008825","FILE":"3547674","REF_FRAME":"TEME","INCLINATION":"53.2193","RA_OF_ASC_NODE":"18.1218","TLE_LINE1":"1 51780U 22017N   22237.91667824  .00018119  00000-0  11539-2 0  9993","REV_AT_EPOCH":"130","TLE_LINE2":"2 51780  53.2193  18.1218 0001390  74.0982  37.1143 15.08830696  1309","TIME_SYSTEM":"UTC","CENTER_NAME":"EARTH","ELEMENT_SET_NO":"999","OBJECT_TYPE":"PAYLOAD","COUNTRY_CODE":"US","SEMIMAJOR_AXIS":"6917.909","ARG_OF_PERICENTER":"74.0982","EPOCH":"2022-08-25T22:00:00.999936","MEAN_MOTION":"15.08830696"},{"OBJECT_ID":"2022-017P","MEAN_ANOMALY":"22.4084","CLASSIFICATION_TYPE":"U","MEAN_MOTION_DDOT":"0.0000000000000","RCS_SIZE":"LARGE","BSTAR":"0.00106360000000","MEAN_MOTION_DOT":"0.00016674","EPHEMERIS_TYPE":"0","LAUNCH_DATE":"2022-02-25","SITE":"AFWTR","PERIAPSIS":"538.813","DECAY_DATE":null,"ECCENTRICITY":"0.00014010","APOAPSIS":"540.752","OBJECT_NAME":"STARLINK-3580","MEAN_ELEMENT_THEORY":"SGP4","PERIOD":"95.438","NORAD_CAT_ID":"51781","ELEMENT_SET_NO":"999","COUNTRY_CODE":"US","OBJECT_TYPE":"PAYLOAD","TIME_SYSTEM":"UTC","CENTER_NAME":"EARTH","ARG_OF_PERICENTER":"53.8867","EPOCH":"2022-08-25T22:00:00.999936","MEAN_MOTION":"15.08827912","SEMIMAJOR_AXIS":"6917.917","REF_FRAME":"TEME","TLE_LINE1":"1 51781U 22017P   22237.91667824  .00016674  00000-0  10636-2 0  9995","INCLINATION":"53.2181","RA_OF_ASC_NODE":"18.1139","FILE":"3547674","GP_ID":"211007086","REV_AT_EPOCH":"130","TLE_LINE2":"2 51781  53.2181  18.1139 0001401  53.8867  22.4084 15.08827912  1307"},{"SEMIMAJOR_AXIS":"6917.925","EPOCH":"2022-08-25T22:00:00.999936","ARG_OF_PERICENTER":"63.0185","MEAN_MOTION":"15.08825480","TIME_SYSTEM":"UTC","CENTER_NAME":"EARTH","ELEMENT_SET_NO":"999","OBJECT_TYPE":"PAYLOAD","COUNTRY_CODE":"US","REV_AT_EPOCH":"130","TLE_LINE2":"2 51782  53.2163  28.1071 0001558  63.0185 278.3764 15.08825480  1308","GP_ID":"211007834","FILE":"3547674","REF_FRAME":"TEME","INCLINATION":"53.2163","RA_OF_ASC_NODE":"28.1071","TLE_LINE1":"1 51782U 22017Q   22237.91667824  .00027901  00000-0  17649-2 0  9992","BSTAR":"0.00176490000000","MEAN_MOTION_DOT":"0.00027901","EPHEMERIS_TYPE":"0","MEAN_MOTION_DDOT":"0.0000000000000","RCS_SIZE":"LARGE","CLASSIFICATION_TYPE":"U","MEAN_ANOMALY":"278.3764","OBJECT_ID":"2022-017Q","PERIOD":"95.438","NORAD_CAT_ID":"51782","OBJECT_NAME":"STARLINK-3616","MEAN_ELEMENT_THEORY":"SGP4","ECCENTRICITY":"0.00015580","APOAPSIS":"540.868","DECAY_DATE":null,"LAUNCH_DATE":"2022-02-25","PERIAPSIS":"538.712","SITE":"AFWTR"},{"OBJECT_ID":"2022-017R","MEAN_ANOMALY":"38.9467","CLASSIFICATION_TYPE":"U","RCS_SIZE":"LARGE","MEAN_MOTION_DDOT":"0.0000000000000","EPHEMERIS_TYPE":"0","BSTAR":"0.00108200000000","MEAN_MOTION_DOT":"0.00016974","PERIAPSIS":"538.675","SITE":"AFWTR","LAUNCH_DATE":"2022-02-25","DECAY_DATE":null,"ECCENTRICITY":"0.00015480","APOAPSIS":"540.817","MEAN_ELEMENT_THEORY":"SGP4","OBJECT_NAME":"STARLINK-3628","NORAD_CAT_ID":"51783","PERIOD":"95.438","COUNTRY_CODE":"US","OBJECT_TYPE":"PAYLOAD","ELEMENT_SET_NO":"999","CENTER_NAME":"EARTH","TIME_SYSTEM":"UTC","MEAN_MOTION":"15.08839717","EPOCH":"2022-08-25T22:00:00.999936","ARG_OF_PERICENTER":"57.4484","SEMIMAJOR_AXIS":"6917.881","TLE_LINE1":"1 51783U 22017R   22237.91667824  .00016974  00000-0  10820-2 0  9995","RA_OF_ASC_NODE":"18.1123","INCLINATION":"53.2181","REF_FRAME":"TEME","FILE":"3547674","GP_ID":"211008580","TLE_LINE2":"2 51783  53.2181  18.1123 0001548  57.4484  38.9467 15.08839717  1302","REV_AT_EPOCH":"130"},{"LAUNCH_DATE":"2022-02-25","PERIAPSIS":"538.772","SITE":"AFWTR","APOAPSIS":"540.821","ECCENTRICITY":"0.00014810","DECAY_DATE":null,"OBJECT_NAME":"STARLINK-3632","MEAN_ELEMENT_THEORY":"SGP4","PERIOD":"95.439","NORAD_CAT_ID":"51784","MEAN_ANOMALY":"297.9978","OBJECT_ID":"2022-017S","CLASSIFICATION_TYPE":"U","MEAN_MOTION_DDOT":"0.0000000000000","RCS_SIZE":"LARGE","BSTAR":"0.00183350000000","MEAN_MOTION_DOT":"0.00028999","EPHEMERIS_TYPE":"0","REF_FRAME":"TEME","RA_OF_ASC_NODE":"28.1094","INCLINATION":"53.2174","TLE_LINE1":"1 51784U 22017S   22237.91667824  .00028999  00000-0  18335-2 0  9995","GP_ID":"211008325","FILE":"3547674","REV_AT_EPOCH":"131","TLE_LINE2":"2 51784  53.2174  28.1094 0001481  63.3512 297.9978 15.08823419  1314","ELEMENT_SET_NO":"999","OBJECT_TYPE":"PAYLOAD","COUNTRY_CODE":"US","TIME_SYSTEM":"UTC","CENTER_NAME":"EARTH","ARG_OF_PERICENTER":"63.3512","EPOCH":"2022-08-25T22:00:00.999936","MEAN_MOTION":"15.08823419","SEMIMAJOR_AXIS":"6917.931"},{"INCLINATION":"53.2180","RA_OF_ASC_NODE":"18.1243","TLE_LINE1":"1 51785U 22017T   22237.91667824  .00018212  00000-0  11598-2 0  9997","REF_FRAME":"TEME","GP_ID":"211007587","FILE":"3547674","TLE_LINE2":"2 51785  53.2180  18.1243 0001341  56.2919  60.1160 15.08826688  1307","REV_AT_EPOCH":"130","OBJECT_TYPE":"PAYLOAD","COUNTRY_CODE":"US","ELEMENT_SET_NO":"999","CENTER_NAME":"EARTH","TIME_SYSTEM":"UTC","MEAN_MOTION":"15.08826688","ARG_OF_PERICENTER":"56.2919","EPOCH":"2022-08-25T22:00:00.999936","SEMIMAJOR_AXIS":"6917.921","SITE":"AFWTR","PERIAPSIS":"538.858","LAUNCH_DATE":"2022-02-25","APOAPSIS":"540.714","ECCENTRICITY":"0.00013410","DECAY_DATE":null,"MEAN_ELEMENT_THEORY":"SGP4","OBJECT_NAME":"STARLINK-3646","NORAD_CAT_ID":"51785","PERIOD":"95.438","MEAN_ANOMALY":"60.1160","OBJECT_ID":"2022-017T","CLASSIFICATION_TYPE":"U","RCS_SIZE":"LARGE","MEAN_MOTION_DDOT":"0.0000000000000","EPHEMERIS_TYPE":"0","BSTAR":"0.00115980000000","MEAN_MOTION_DOT":"0.00018212"},{"DECAY_DATE":null,"APOAPSIS":"540.937","ECCENTRICITY":"0.00016380","LAUNCH_DATE":"2022-02-25","SITE":"AFWTR","PERIAPSIS":"538.671","PERIOD":"95.439","NORAD_CAT_ID":"51786","OBJECT_NAME":"STARLINK-3638","MEAN_ELEMENT_THEORY":"SGP4","CLASSIFICATION_TYPE":"U","OBJECT_ID":"2022-017U","MEAN_ANOMALY":"345.2993","MEAN_MOTION_DOT":"0.00031138","BSTAR":"0.00196690000000","EPHEMERIS_TYPE":"0","MEAN_MOTION_DDOT":"0.0000000000000","RCS_SIZE":"LARGE","FILE":"3547674","GP_ID":"211007334","REF_FRAME":"TEME","TLE_LINE1":"1 51786U 22017U   22237.91667824  .00031138  00000-0  19669-2 0  9997","INCLINATION":"53.2169","RA_OF_ASC_NODE":"28.1108","REV_AT_EPOCH":"130","TLE_LINE2":"2 51786  53.2169  28.1108 0001638  56.1169 345.2993 15.08820894  1305","TIME_SYSTEM":"UTC","CENTER_NAME":"EARTH","ELEMENT_SET_NO":"999","COUNTRY_CODE":"US","OBJECT_TYPE":"PAYLOAD","SEMIMAJOR_AXIS":"6917.939","ARG_OF_PERICENTER":"56.1169","EPOCH":"2022-08-25T22:00:00.999936","MEAN_MOTION":"15.08820894"},{"OBJECT_ID":"2022-017V","MEAN_ANOMALY":"274.0438","CLASSIFICATION_TYPE":"U","MEAN_MOTION_DDOT":"0.0000000000000","RCS_SIZE":"LARGE","BSTAR":"-0.00000811910000","MEAN_MOTION_DOT":"-0.00000417","EPHEMERIS_TYPE":"0","LAUNCH_DATE":"2022-02-25","PERIAPSIS":"538.572","SITE":"AFWTR","DECAY_DATE":null,"ECCENTRICITY":"0.00016930","APOAPSIS":"540.915","OBJECT_NAME":"STARLINK-3619","MEAN_ELEMENT_THEORY":"SGP4","PERIOD":"95.438","NORAD_CAT_ID":"51787","ELEMENT_SET_NO":"999","COUNTRY_CODE":"US","OBJECT_TYPE":"PAYLOAD","TIME_SYSTEM":"UTC","CENTER_NAME":"EARTH","EPOCH":"2022-08-25T22:00:00.999936","ARG_OF_PERICENTER":"47.3543","MEAN_MOTION":"15.08840653","SEMIMAJOR_AXIS":"6917.878","REF_FRAME":"TEME","TLE_LINE1":"1 51787U 22017V   22237.91667824 -.00000417  00000-0 -81191-5 0  9998","INCLINATION":"53.2173","RA_OF_ASC_NODE":"28.1093","FILE":"3547674","GP_ID":"211008080","REV_AT_EPOCH":"130","TLE_LINE2":"2 51787  53.2173  28.1093 0001693  47.3543 274.0438 15.08840653  1301"},{"LAUNCH_DATE":"2022-02-25","SITE":"AFWTR","PERIAPSIS":"538.677","APOAPSIS":"541.007","ECCENTRICITY":"0.00016840","DECAY_DATE":null,"OBJECT_NAME":"STARLINK-3641","MEAN_ELEMENT_THEORY":"SGP4","PERIOD":"95.440","NORAD_CAT_ID":"51788","MEAN_ANOMALY":"45.6867","OBJECT_ID":"2022-017W","CLASSIFICATION_TYPE":"U","MEAN_MOTION_DDOT":"0.0000000000000","RCS_SIZE":"LARGE","BSTAR":"0.00226450000000","MEAN_MOTION_DOT":"0.00035904","EPHEMERIS_TYPE":"0","REF_FRAME":"TEME","INCLINATION":"53.2169","RA_OF_ASC_NODE":"28.1294","TLE_LINE1":"1 51788U 22017W   22237.91667824  .00035904  00000-0  22645-2 0  9992","GP_ID":"211008826","FILE":"3547674","REV_AT_EPOCH":"130","TLE_LINE2":"2 51788  53.2169  28.1294 0001684  55.6599  45.6867 15.08808465  1306","ELEMENT_SET_NO":"999","OBJECT_TYPE":"PAYLOAD","COUNTRY_CODE":"US","TIME_SYSTEM":"UTC","CENTER_NAME":"EARTH","EPOCH":"2022-08-25T22:00:00.999936","ARG_OF_PERICENTER":"55.6599","MEAN_MOTION":"15.08808465","SEMIMAJOR_AXIS":"6917.977"}];
